{
    "links": {
        "self": "http://www.neowsapp.com/rest/v1/neo/3763425?api_key=iIulBulltgU6a56xZRHN4H3l9WmuAYTsLGpBGhQ2"
    },
    "id": "3763425",
    "neo_reference_id": "3763425",
    "name": "(2016 VQ2)",
    "designation": "2016 VQ2",
    "nasa_jpl_url": "http://ssd.jpl.nasa.gov/sbdb.cgi?sstr=3763425",
    "absolute_magnitude_h": 23.5,
    "estimated_diameter": {
        "kilometers": {
            "estimated_diameter_min": 0.0530340723,
            "estimated_diameter_max": 0.1185877909
        },
        "meters": {
            "estimated_diameter_min": 53.0340723319,
            "estimated_diameter_max": 118.5877908577
        },
        "miles": {
            "estimated_diameter_min": 0.0329538346,
            "estimated_diameter_max": 0.0736870142
        },
        "feet": {
            "estimated_diameter_min": 173.9963058693,
            "estimated_diameter_max": 389.0675677576
        }
    },
    "is_potentially_hazardous_asteroid": false,
    "close_approach_data": [
        {
            "close_approach_date": "1927-08-04",
            "close_approach_date_full": "1927-Aug-04 21:43",
            "epoch_date_close_approach": -1338344220000,
            "relative_velocity": {
                "kilometers_per_second": "18.4797609181",
                "kilometers_per_hour": "66527.1393049879",
                "miles_per_hour": "41337.377197591"
            },
            "miss_distance": {
                "astronomical": "0.4008108865",
                "lunar": "155.9154348485",
                "kilometers": "59960454.893211755",
                "miles": "37257699.008182019"
            },
            "orbiting_body": "Earth"
        },
        {
            "close_approach_date": "1938-11-24",
            "close_approach_date_full": "1938-Nov-24 18:09",
            "epoch_date_close_approach": -981525060000,
            "relative_velocity": {
                "kilometers_per_second": "18.0093691821",
                "kilometers_per_hour": "64833.7290554304",
                "miles_per_hour": "40285.157923359"
            },
            "miss_distance": {
                "astronomical": "0.2952816843",
                "lunar": "114.8645751927",
                "kilometers": "44173511.021292441",
                "miles": "27448146.9611440458"
            },
            "orbiting_body": "Earth"
        },
        {
            "close_approach_date": "2016-11-05",
            "close_approach_date_full": "2016-Nov-05 08:04",
            "epoch_date_close_approach": 1478333040000,
            "relative_velocity": {
                "kilometers_per_second": "11.0937314919",
                "kilometers_per_hour": "39937.4333709624",
                "miles_per_hour": "24815.5679743072"
            },
            "miss_distance": {
                "astronomical": "0.0421778195",
                "lunar": "16.4071717855",
                "kilometers": "6309711.958444465",
                "miles": "3920673.206945017"
            },
            "orbiting_body": "Earth"
        }
    ],
    "orbital_data": {
        "orbit_id": "8",
        "orbit_determination_date": "2018-02-10 07:08:30",
        "first_observation_date": "2016-11-07",
        "last_observation_date": "2016-12-01",
        "data_arc_in_days": 24,
        "observations_used": 78,
        "orbit_uncertainty": "7",
        "minimum_orbit_intersection": ".0317662",
        "jupiter_tisserand_invariant": "3.670",
        "epoch_osculation": "2459000.5",
        "eccentricity": ".5055325480936076",
        "semi_major_axis": "1.98177724588234",
        "inclination": "11.1592482630191",
        "ascending_node_longitude": "45.12003515629821",
        "orbital_period": "1019.01524982792",
        "perihelion_distance": ".9799243450175088",
        "perihelion_argument": "327.3095682546957",
        "aphelion_distance": "2.983630146747171",
        "perihelion_time": "2458693.125309764193",
        "mean_anomaly": "108.590022086104",
        "mean_motion": ".3532822497610245",
        "equinox": "J2000",
        "orbit_class": {
            "orbit_class_type": "APO",
            "orbit_class_description": "Near-Earth asteroid orbits which cross the Earth’s orbit similar to that of 1862 Apollo",
            "orbit_class_range": "a (semi-major axis) > 1.0 AU; q (perihelion) < 1.017 AU"
        }
    },
    "is_sentry_object": false
}